#aV2022 11 16  0  0  0.00000000     288 DD+AD WGS84 FIT  NGA
## 2236 259200.00000000   300.00000000 59899 0.0000000000000
+   32     1  2  3  4  5  6  7  8  9 10 11 12 13 14 15 16 17
+         18 19 20 21 22 23 24 25 26 27 28 29 30 31 32  0  0
+          0  0  0  0  0  0  0  0  0  0  0  0  0  0  0  0  0
+          0  0  0  0  0  0  0  0  0  0  0  0  0  0  0  0  0
+          0  0  0  0  0  0  0  0  0  0  0  0  0  0  0  0  0
++         2  2  2  2  2  2  2  2  2  2  2  2  2  2  2  2  2
++         2  2  2  2  2  2  2  2  2  2  2  2  2  2  2  0  0
++         0  0  0  0  0  0  0  0  0  0  0  0  0  0  0  0  0
++         0  0  0  0  0  0  0  0  0  0  0  0  0  0  0  0  0
++         0  0  0  0  0  0  0  0  0  0  0  0  0  0  0  0  0
%c cc cc ccc ccc cccc cccc cccc cccc ccccc ccccc ccccc ccccc
%c cc cc ccc ccc cccc cccc cccc cccc ccccc ccccc ccccc ccccc
%f  0.0000000  0.000000000  0.00000000000  0.000000000000000
%f  0.0000000  0.000000000  0.00000000000  0.000000000000000
%i    0    0    0    0      0      0      0      0         0
%i    0    0    0    0      0      0      0      0         0
/*      NGA, ST. LOUIS,MO.                                  
/*   EPHEMERIS COMPUTED FROM 2 DAYS OF DATA                 
/*   EPOCHA v8 SMOOTHER                                     
/*   G2139 IERS2010 SATIGS SATAPC                           
*  2022 11 16 18 50  0.00000000
P  1 -21473.384878 -13182.088980   8619.906534    250.859834                    
V  1  -6920.273714  -9011.117330 -29615.017012     -0.056214                    
P  2  22370.560616   9214.132385 -10092.081747   -637.550097                    
V  2   9045.539611  10756.870117  28323.749643      0.017453                    
P  3 -13347.112022  -7189.314236  21696.278575   -373.049101                    
V  3   6852.926904 -26926.547525  -4576.366833     -0.018589                    
P  4 -23857.971059  -2222.798245  11573.699606    -85.289769                    
V  4  13627.502739  -5859.608829  26866.516882      0.066934                    
P  5   7774.998416  19483.560188 -16391.237111   -104.543860                    
V  5  -5771.363998  19791.038737  21125.679540     -0.014564                    
P  6  -1367.665155  17212.722403  20223.531116    519.723538                    
V  6 -18883.482221 -17132.248615  13422.170559      0.091478                    
P  7 -18709.073286    443.145962 -18607.638220    286.609294                    
V  7 -16601.138463 -17910.119307  15424.950535     -0.046873                    
P  8 -16499.292936  -8718.408548 -19079.929016    -94.117061                    
V  8  22522.633603  -8413.117915 -15302.808126     -0.018413                    
P  9 -25523.859670   7367.308871    938.835233   -267.708956                    
V  9    331.797249  -3225.480667  31560.696651      0.056840                    
P 10  11324.832042 -22174.633994  -8621.625284    -12.178507                    
V 10   -265.069604  11498.078470 -29690.772446     -0.015860                    
P 11   9154.392836  21866.150393  12025.178103    -40.787621                    
V 11 -12076.226063  -9558.444108  26550.967516     -0.060416                    
P 12  12652.127223   8795.701859  21376.679980   -305.015073                    
V 12  -8837.754937  26304.608220  -5422.636727     -0.044988                    
P 13   8259.599914  13654.823139 -21436.198464    425.744654                    
V 13 -26384.585204   4436.854608  -7217.977909      0.068073                    
P 14 -13379.848177  20404.772038 -10342.028468    -82.109758                    
V 14    822.912718 -13478.172983 -27748.710459      0.051974                    
P 15  17645.130079   7552.458089 -18917.747479    -11.871442                    
V 15 -20479.519373  10825.749893 -14855.312921      0.031945                    
P 16  -1944.048227 -22826.093483 -13313.339806   -526.882829                    
V 16   7535.653494 -14985.817665  25578.768245      0.000486                    
P 17 -19811.006835  13095.024479  12412.359465    678.438296                    
V 17 -15025.400687   1614.542017 -26567.118746      0.032455                    
P 18  17048.756197  -2512.191715 -20250.740664    -24.383708                    
V 18  17589.404665  18672.437453  12352.411631     -0.140518                    
P 19  -9896.314802  15014.297117  19224.258220    238.228135                    
V 19 -24792.082727   3141.471994 -15286.837086      0.050796                    
P 20   1253.290821  26271.882660  -4477.985706    469.639798                    
V 20  -3451.365097   5437.363821  30591.271210     -0.027841                    
P 21 -21348.352977 -16493.398718    823.555795    155.915795                    
V 21   1118.657432  -1859.872883 -31249.260011     -0.008014                    
P 22   6349.220736 -15986.850749  20615.262443    365.887564                    
V 22  24961.121108  -4111.225299 -11278.226481      0.077026                    
P 23  14949.637359 -13418.538449 -17309.661928     -0.978671                    
V 23  -3004.531206  21848.910065 -19672.034047      0.002359                    
P 24  22257.769550  14314.742653   3820.077538     56.250478                    
V 24   2007.497477   5825.575782 -30386.597668     -0.160751                    
P 25  15840.115547  -3554.380707  20672.440242    393.235376                    
V 25  -5160.241278  26532.181676   8669.205503      0.037181                    
P 26   3309.969199 -26113.091377  -1804.281670    235.976167                    
V 26   4206.299748  -1494.503266  31297.655870      0.011241                    
P 27  -4513.442325 -14429.792078 -22056.800368    176.474058                    
V 27  26370.593819  -7628.113718    -16.120279     -0.087319                    
P 28  12952.926281  23313.215495   -764.362990    313.509646                    
V 28  -2899.607655   -117.801062 -31689.981587     -0.055450                    
P 29  26201.202475  -3785.880061   2593.587572   -567.648532                    
V 29  -2806.894637   2816.423539  31870.233673     -0.026839                    
P 30 -10212.718766  11965.403393 -21302.415453   -536.635495                    
V 30 -19744.511390 -18954.054167  -1428.975430      0.003624                    
P 31    813.830727 -18201.803239  19003.775857   -200.384845                    
V 31  18630.716809  16212.857397  15064.827368     -0.012128                    
P 32  16590.612250 -15292.254766  14002.480887   -298.379150                    
V 32  17526.633859  -2886.629169 -24373.586704     -0.126252                    
EOF
